EUTELSAT 7A             
1 28187U 04008A   25356.47977323  .00000121  00000+0  00000+0 0  9993
2 28187   5.3810  74.1412 0000899 205.6184 205.0256  1.00271080 79584
EUTELSAT 174A           
1 28924U 05052A   25356.44037081  .00000028  00000+0  00000+0 0  9993
2 28924   3.7703  78.7408 0005858 195.0386 149.9989  1.00270010 50554
EUTELSAT HOTBIRD 13B    
1 29270U 06032A   25356.06225183  .00000177  00000+0  00000+0 0  9992
2 29270   1.2033  84.2958 0003517 182.6433 239.4510  1.00274487 45534
EUTELSAT HOTBIRD 13C    
1 33459U 08065A   25356.37827380 -.00000262  00000+0  00000+0 0  9991
2 33459   2.4948  81.3168 0003474 184.7904 270.9462  1.00270736 45578
EUTELSAT 36B            
1 36101U 09065A   25356.55859998  .00000134  00000+0  00000+0 0  9996
2 36101   0.0537  39.7753 0005657 230.9143  72.2453  1.00271065 58937
EUTELSAT KA-SAT 9A      
1 37258U 10069A   25356.16294589  .00000082  00000+0  00000+0 0  9994
2 37258   0.0498 338.8583 0001291 200.0639 339.7056  1.00263661 42238
EUTELSAT 7 WEST A       
1 37816U 11051A   25356.26174966 -.00000038  00000+0  00000+0 0  9995
2 37816   0.0642 344.8076 0005196 244.0638 309.1268  1.00271304 52104
EUTELSAT 16A            
1 37836U 11057A   25356.19501590  .00000126  00000+0  00000+0 0  9999
2 37836   0.0583 341.8849 0005854 290.8283 264.4899  1.00269980  5558
